[{"OBJECT_NAME":"STARLINK-1975","OBJECT_ID":"2021-009AB","EPOCH":"2026-03-09T22:00:01.999584","MEAN_MOTION":15.77661104,"ECCENTRICITY":0.0004759,"INCLINATION":53.0518,"RA_OF_ASC_NODE":307.9346,"ARG_OF_PERICENTER":123.581,"MEAN_ANOMALY":224.1672,"EPHEMERIS_TYPE":0,"CLASSIFICATION_TYPE":"U","NORAD_CAT_ID":47573,"ELEMENT_SET_NO":999,"REV_AT_EPOCH":585,"BSTAR":0.00062457323,"MEAN_MOTION_DOT":0.00107302,"MEAN_MOTION_DDOT":0},{"OBJECT_NAME":"STARLINK-36712","OBJECT_ID":"2026-025H","EPOCH":"2026-03-09T18:37:50.950560","MEAN_MOTION":15.75177517,"ECCENTRICITY":6.529e-5,"INCLINATION":97.2833,"RA_OF_ASC_NODE":180.3591,"ARG_OF_PERICENTER":105.1896,"MEAN_ANOMALY":254.9441,"EPHEMERIS_TYPE":0,"CLASSIFICATION_TYPE":"U","NORAD_CAT_ID":67700,"ELEMENT_SET_NO":999,"REV_AT_EPOCH":595,"BSTAR":0.0017010842,"MEAN_MOTION_DOT":0.00261384,"MEAN_MOTION_DDOT":0}]
